{"type": "FeatureCollection", "features": [ {"type": "Feature", "properties": {"norad_id": 34546, "name": "COSMOS 2251 DEB", "group": "cosmos-2251-debris", "lat": 73.3731711315231, "lon": -29.846240184892117, "alt_km": 739.8395625298999, "timestamp": "2025-12-08T17:43:05.332333+00:00", "meta": {"OBJECT_NAME": "COSMOS 2251 DEB", "OBJECT_ID": "1993-036UG", "EPOCH": "2025-12-07T21:56:09.199968", "MEAN_MOTION": 14.45377285, "ECCENTRICITY": 0.00218291, "INCLINATION": 74.0316, "RA_OF_ASC_NODE": 258.1833, "ARG_OF_PERICENTER": 332.4426, "MEAN_ANOMALY": 145.4854, "EPHEMERIS_TYPE": 0, "CLASSIFICATION_TYPE": "U", "NORAD_CAT_ID": 34546, "ELEMENT_SET_NO": 999, "REV_AT_EPOCH": 87956, "BSTAR": 0.00098110058, "MEAN_MOTION_DOT": 3.435e-05, "MEAN_MOTION_DDOT": 0}, "tle": {"line1": "1 34546U 93036UG  25341.91399537  .00003435  00000+0  98110-3 0  9990", "line2": "2 34546  74.0316 258.1833 0021829 332.4426 145.4854 14.45377285879563"}}, "geometry": {"type": "Point", "coordinates": [-29.846240184892117, 73.3731711315231]}}, {"type": "Feature", "properties": {"norad_id": 34547, "name": "COSMOS 2251 DEB", "group": "cosmos-2251-debris", "lat": -62.506363948100976, "lon": -38.10430211194518, "alt_km": 654.4181533614619, "timestamp": "2025-12-08T17:43:05.332344+00:00", "meta": {"OBJECT_NAME": "COSMOS 2251 DEB", "OBJECT_ID": "1993-036UH", "EPOCH": "2025-12-08T01:55:14.653344", "MEAN_MOTION": 14.7215671, "ECCENTRICITY": 0.00180582, "INCLINATION": 74.0311, "RA_OF_ASC_NODE": 109.7939, "ARG_OF_PERICENTER": 189.5997, "MEAN_ANOMALY": 170.4833, "EPHEMERIS_TYPE": 0, "CLASSIFICATION_TYPE": "U", "NORAD_CAT_ID": 34547, "ELEMENT_SET_NO": 999, "REV_AT_EPOCH": 88453, "BSTAR": 0.002663155, "MEAN_MOTION_DOT": 0.00016832, "MEAN_MOTION_DDOT": 0}, "tle": {"line1": "1 34547U 93036UH  25342.08003071  .00016832  00000+0  26632-2 0  9999", "line2": "2 34547  74.0311 109.7939 0018058 189.5997 170.4833 14.72156710884537"}}, "geometry": {"type": "Point", "coordinates": [-38.10430211194518, -62.506363948100976]}}, {"type": "Feature", "properties": {"norad_id": 34553, "name": "COSMOS 2251 DEB", "group": "cosmos-2251-debris", "lat": -6.417270983709403, "lon": -162.3426783988961, "alt_km": 700.8839200551947, "timestamp": "2025-12-08T17:43:05.332355+00:00", "meta": {"OBJECT_NAME": "COSMOS 2251 DEB", "OBJECT_ID": "1993-036UP", "EPOCH": "2025-12-08T01:51:30.124800", "MEAN_MOTION": 14.57656616, "ECCENTRICITY": 0.00195206, "INCLINATION": 74.0242, "RA_OF_ASC_NODE": 200.7604, "ARG_OF_PERICENTER": 278.4513, "MEAN_ANOMALY": 208.4661, "EPHEMERIS_TYPE": 0, "CLASSIFICATION_TYPE": "U", "NORAD_CAT_ID": 34553, "ELEMENT_SET_NO": 999, "REV_AT_EPOCH": 88028, "BSTAR": 0.0014229085, "MEAN_MOTION_DOT": 6.483e-05, "MEAN_MOTION_DDOT": 0}, "tle": {"line1": "1 34553U 93036UP  25342.07743200  .00006483  00000+0  14229-2 0  9990", "line2": "2 34553  74.0242 200.7604 0019520 278.4513 208.4661 14.57656616880287"}}, "geometry": {"type": "Point", "coordinates": [-162.3426783988961, -6.417270983709403]}}, {"type": "Feature", "properties": {"norad_id": 34554, "name": "COSMOS 2251 DEB", "group": "cosmos-2251-debris", "lat": 22.554928304724456, "lon": -46.81300789423994, "alt_km": 748.8480055800746, "timestamp": "2025-12-08T17:43:05.332365+00:00", "meta": {"OBJECT_NAME": "COSMOS 2251 DEB", "OBJECT_ID": "1993-036UQ", "EPOCH": "2025-12-07T21:42:48.100896", "MEAN_MOTION": 14.37921373, "ECCENTRICITY": 0.00227985, "INCLINATION": 74.0383, "RA_OF_ASC_NODE": 307.8941, "ARG_OF_PERICENTER": 11.3821, "MEAN_ANOMALY": 19.1082, "EPHEMERIS_TYPE": 0, "CLASSIFICATION_TYPE": "U", "NORAD_CAT_ID": 34554, "ELEMENT_SET_NO": 999, "REV_AT_EPOCH": 87686, "BSTAR": 0.00056775978, "MEAN_MOTION_DOT": 1.694e-05, "MEAN_MOTION_DDOT": 0}, "tle": {"line1": "1 34554U 93036UQ  25341.90472339  .00001694  00000+0  56776-3 0  9997", "line2": "2 34554  74.0383 307.8941 0022798  11.3821  19.1082 14.37921373876860"}}, "geometry": {"type": "Point", "coordinates": [-46.81300789423994, 22.554928304724456]}}, {"type": "Feature", "properties": {"norad_id": 34556, "name": "COSMOS 2251 DEB", "group": "cosmos-2251-debris", "lat": -29.01980509239951, "lon": 123.56944184967345, "alt_km": 646.8861161360192, "timestamp": "2025-12-08T17:43:05.332376+00:00", "meta": {"OBJECT_NAME": "COSMOS 2251 DEB", "OBJECT_ID": "1993-036US", "EPOCH": "2025-12-07T21:25:14.071872", "MEAN_MOTION": 14.77559181, "ECCENTRICITY": 0.00085084, "INCLINATION": 74.016, "RA_OF_ASC_NODE": 134.3799, "ARG_OF_PERICENTER": 194.0452, "MEAN_ANOMALY": 318.8807, "EPHEMERIS_TYPE": 0, "CLASSIFICATION_TYPE": "U", "NORAD_CAT_ID": 34556, "ELEMENT_SET_NO": 999, "REV_AT_EPOCH": 88257, "BSTAR": 0.002930028, "MEAN_MOTION_DOT": 0.00020972, "MEAN_MOTION_DDOT": 0}, "tle": {"line1": "1 34556U 93036US  25341.89252398  .00020972  00000+0  29300-2 0  9990", "line2": "2 34556  74.0160 134.3799 0008508 194.0452 318.8807 14.77559181882578"}}, "geometry": {"type": "Point", "coordinates": [123.56944184967345, -29.01980509239951]}}, {"type": "Feature", "properties": {"norad_id": 34560, "name": "COSMOS 2251 DEB", "group": "cosmos-2251-debris", "lat": -52.3276035714446, "lon": 128.1343142844055, "alt_km": 658.4323813428673, "timestamp": "2025-12-08T17:43:05.332387+00:00", "meta": {"OBJECT_NAME": "COSMOS 2251 DEB", "OBJECT_ID": "1993-036UW", "EPOCH": "2025-12-08T05:42:30.676320", "MEAN_MOTION": 14.71945851, "ECCENTRICITY": 0.00150045, "INCLINATION": 74.0166, "RA_OF_ASC_NODE": 150.8989, "ARG_OF_PERICENTER": 232.1568, "MEAN_ANOMALY": 301.7824, "EPHEMERIS_TYPE": 0, "CLASSIFICATION_TYPE": "U", "NORAD_CAT_ID": 34560, "ELEMENT_SET_NO": 999, "REV_AT_EPOCH": 88185, "BSTAR": 0.0026602234, "MEAN_MOTION_DOT": 0.00016718, "MEAN_MOTION_DDOT": 0}, "tle": {"line1": "1 34560U 93036UW  25342.23785505  .00016718  00000+0  26602-2 0  9990", "line2": "2 34560  74.0166 150.8989 0015004 232.1568 301.7824 14.71945851881851"}}, "geometry": {"type": "Point", "coordinates": [128.1343142844055, -52.3276035714446]}}, {"type": "Feature", "properties": {"norad_id": 34563, "name": "COSMOS 2251 DEB", "group": "cosmos-2251-debris", "lat": 69.72063548799306, "lon": -98.05254578592212, "alt_km": 736.6417220179937, "timestamp": "2025-12-08T17:43:05.332397+00:00", "meta": {"OBJECT_NAME": "COSMOS 2251 DEB", "OBJECT_ID": "1993-036UZ", "EPOCH": "2025-12-08T01:19:15.663360", "MEAN_MOTION": 14.4648748, "ECCENTRICITY": 0.00138447, "INCLINATION": 74.038, "RA_OF_ASC_NODE": 212.4541, "ARG_OF_PERICENTER": 306.5232, "MEAN_ANOMALY": 174.4241, "EPHEMERIS_TYPE": 0, "CLASSIFICATION_TYPE": "U", "NORAD_CAT_ID": 34563, "ELEMENT_SET_NO": 999, "REV_AT_EPOCH": 88129, "BSTAR": 0.00066045493, "MEAN_MOTION_DOT": 2.353e-05, "MEAN_MOTION_DDOT": 0}, "tle": {"line1": "1 34563U 93036UZ  25342.05504240  .00002353  00000+0  66045-3 0  9994", "line2": "2 34563  74.0380 212.4541 0013844 306.5232 174.4241 14.46487480881292"}}, "geometry": {"type": "Point", "coordinates": [-98.05254578592212, 69.72063548799306]}}, {"type": "Feature", "properties": {"norad_id": 34564, "name": "COSMOS 2251 DEB", "group": "cosmos-2251-debris", "lat": -56.743224430583595, "lon": -140.4713885299331, "alt_km": 754.3761598662686, "timestamp": "2025-12-08T17:43:05.332408+00:00", "meta": {"OBJECT_NAME": "COSMOS 2251 DEB", "OBJECT_ID": "1993-036VA", "EPOCH": "2025-12-08T05:23:57.110784", "MEAN_MOTION": 14.40678589, "ECCENTRICITY": 0.00188411, "INCLINATION": 74.0328, "RA_OF_ASC_NODE": 246.3641, "ARG_OF_PERICENTER": 351.0373, "MEAN_ANOMALY": 167.6792, "EPHEMERIS_TYPE": 0, "CLASSIFICATION_TYPE": "U", "NORAD_CAT_ID": 34564, "ELEMENT_SET_NO": 999, "REV_AT_EPOCH": 87941, "BSTAR": 0.00049600835, "MEAN_MOTION_DOT": 1.561e-05, "MEAN_MOTION_DDOT": 0}, "tle": {"line1": "1 34564U 93036VA  25342.22496656  .00001561  00000+0  49601-3 0  9994", "line2": "2 34564  74.0328 246.3641 0018841 351.0373 167.6792 14.40678589879417"}}, "geometry": {"type": "Point", "coordinates": [-140.4713885299331, -56.743224430583595]}}, {"type": "Feature", "properties": {"norad_id": 34567, "name": "COSMOS 2251 DEB", "group": "cosmos-2251-debris", "lat": -43.42813135411122, "lon": -0.3005814696398075, "alt_km": 765.9658637194489, "timestamp": "2025-12-08T17:43:05.332419+00:00", "meta": {"OBJECT_NAME": "COSMOS 2251 DEB", "OBJECT_ID": "1993-036VD", "EPOCH": "2025-12-08T05:24:18.256320", "MEAN_MOTION": 14.24009594, "ECCENTRICITY": 0.00745648, "INCLINATION": 74.0398, "RA_OF_ASC_NODE": 164.9053, "ARG_OF_PERICENTER": 240.1417, "MEAN_ANOMALY": 236.5722, "EPHEMERIS_TYPE": 0, "CLASSIFICATION_TYPE": "U", "NORAD_CAT_ID": 34567, "ELEMENT_SET_NO": 999, "REV_AT_EPOCH": 87060, "BSTAR": 0.00037531361, "MEAN_MOTION_DOT": 8.61e-06, "MEAN_MOTION_DDOT": 0}, "tle": {"line1": "1 34567U 93036VD  25342.22521130  .00000861  00000+0  37531-3 0  9994", "line2": "2 34567  74.0398 164.9053 0074564 240.1417 236.5722 14.24009594870607"}}, "geometry": {"type": "Point", "coordinates": [-0.3005814696398075, -43.42813135411122]}}, {"type": "Feature", "properties": {"norad_id": 34569, "name": "COSMOS 2251 DEB", "group": "cosmos-2251-debris", "lat": 20.08075746707274, "lon": -148.60321557086598, "alt_km": 699.2276176198493, "timestamp": "2025-12-08T17:43:05.332430+00:00", "meta": {"OBJECT_NAME": "COSMOS 2251 DEB", "OBJECT_ID": "1993-036VF", "EPOCH": "2025-12-07T16:36:13.684320", "MEAN_MOTION": 14.24733098, "ECCENTRICITY": 0.01570605, "INCLINATION": 73.9907, "RA_OF_ASC_NODE": 207.2636, "ARG_OF_PERICENTER": 36.8107, "MEAN_ANOMALY": 19.5754, "EPHEMERIS_TYPE": 0, "CLASSIFICATION_TYPE": "U", "NORAD_CAT_ID": 34569, "ELEMENT_SET_NO": 999, "REV_AT_EPOCH": 86896, "BSTAR": 0.0010128697, "MEAN_MOTION_DOT": 2.657e-05, "MEAN_MOTION_DDOT": 0}, "tle": {"line1": "1 34569U 93036VF  25341.69182505  .00002657  00000+0  10129-2 0  9993", "line2": "2 34569  73.9907 207.2636 0157060  36.8107  19.5754 14.24733098868963"}}, "geometry": {"type": "Point", "coordinates": [-148.60321557086598, 20.08075746707274]}}]}